[{"OBJECT_NAME":"GAOFEN-9 05","OBJECT_ID":"2020-058A","EPOCH":"2026-03-10T00:01:50.876256","MEAN_MOTION":15.30293976,"ECCENTRICITY":0.0010522,"INCLINATION":97.2228,"RA_OF_ASC_NODE":111.963,"ARG_OF_PERICENTER":91.0204,"MEAN_ANOMALY":269.2242,"EPHEMERIS_TYPE":0,"CLASSIFICATION_TYPE":"U","NORAD_CAT_ID":46232,"ELEMENT_SET_NO":999,"REV_AT_EPOCH":30843,"BSTAR":0.00025120304,"MEAN_MOTION_DOT":7.299e-5,"MEAN_MOTION_DDOT":0},{"OBJECT_NAME":"STARLINK-30298","OBJECT_ID":"2023-124C","EPOCH":"2026-03-09T14:52:57.273312","MEAN_MOTION":15.30189614,"ECCENTRICITY":0.0001425,"INCLINATION":53.1607,"RA_OF_ASC_NODE":207.3888,"ARG_OF_PERICENTER":95.3928,"MEAN_ANOMALY":264.7235,"EPHEMERIS_TYPE":0,"CLASSIFICATION_TYPE":"U","NORAD_CAT_ID":57665,"ELEMENT_SET_NO":999,"REV_AT_EPOCH":14355,"BSTAR":-3.1256e-5,"MEAN_MOTION_DOT":-1.285e-5,"MEAN_MOTION_DDOT":0}]
